HIMAWARI-8              
1 40267U 14060A   23244.82679880 -.00000292  00000+0  00000+0 0  9995
2 40267   0.0237 139.2633 0001011  37.8129 241.9497  1.00268330 32535
